start=new Date('2022-01-21T00:00:00.000Z').valueOf();
sats=[{"MEAN_MOTION_DDOT":"0.0000000000000","OBJECT_ID":"2020-001AB","ELEMENT_SET_NO":"999","REF_FRAME":"TEME","MEAN_ANOMALY":"296.3229","OBJECT_NAME":"STARLINK-1083","EPHEMERIS_TYPE":"0","APOAPSIS":"548.483","ECCENTRICITY":"0.00018330","NORAD_CAT_ID":"44939","EPOCH":"2022-01-20T09:03:19.990080","DECAY_DATE":null,"MEAN_ELEMENT_THEORY":"SGP4","TLE_LINE2":"2 44939  53.0527 262.1902 0001833  63.7948 296.3229 15.06399857112636","CLASSIFICATION_TYPE":"U","PERIAPSIS":"545.945","SITE":"AFETR","INCLINATION":"53.0527","MEAN_MOTION":"15.06399857","TLE_LINE1":"1 44939U 20001AB  22020.37731470  .00004098  00000-0  29386-3 0  9992","MEAN_MOTION_DOT":"0.00004098","GP_ID":"194257521","BSTAR":"0.00029386000000","RCS_SIZE":"LARGE","ARG_OF_PERICENTER":"63.7948","LAUNCH_DATE":"2020-01-07","CENTER_NAME":"EARTH","OBJECT_TYPE":"PAYLOAD","RA_OF_ASC_NODE":"262.1902","FILE":"3278533","REV_AT_EPOCH":"11263","SEMIMAJOR_AXIS":"6925.349","COUNTRY_CODE":"US","TIME_SYSTEM":"UTC","PERIOD":"95.592"},{"APOAPSIS":"548.574","EPOCH":"2022-01-20T09:19:17.390208","DECAY_DATE":null,"ECCENTRICITY":"0.00019030","NORAD_CAT_ID":"44940","ELEMENT_SET_NO":"999","MEAN_MOTION_DDOT":"0.0000000000000","OBJECT_ID":"2020-001AC","REF_FRAME":"TEME","MEAN_ANOMALY":"298.3513","EPHEMERIS_TYPE":"0","OBJECT_NAME":"STARLINK-1091","CENTER_NAME":"EARTH","RCS_SIZE":"LARGE","ARG_OF_PERICENTER":"61.7668","LAUNCH_DATE":"2020-01-07","FILE":"3278533","REV_AT_EPOCH":"11263","RA_OF_ASC_NODE":"262.1355","OBJECT_TYPE":"PAYLOAD","COUNTRY_CODE":"US","SEMIMAJOR_AXIS":"6925.391","TIME_SYSTEM":"UTC","PERIOD":"95.593","PERIAPSIS":"545.938","INCLINATION":"53.0533","SITE":"AFETR","TLE_LINE2":"2 44940  53.0533 262.1355 0001903  61.7668 298.3513 15.06386223112633","MEAN_ELEMENT_THEORY":"SGP4","CLASSIFICATION_TYPE":"U","TLE_LINE1":"1 44940U 20001AC  22020.38839572  .00004131  00000-0  29615-3 0  9990","MEAN_MOTION":"15.06386223","MEAN_MOTION_DOT":"0.00004131","GP_ID":"194257767","BSTAR":"0.00029615000000"},{"OBJECT_TYPE":"PAYLOAD","RA_OF_ASC_NODE":"263.5268","FILE":"3278533","REV_AT_EPOCH":"11259","ARG_OF_PERICENTER":"69.8425","RCS_SIZE":"LARGE","LAUNCH_DATE":"2020-01-07","CENTER_NAME":"EARTH","TIME_SYSTEM":"UTC","PERIOD":"95.593","SEMIMAJOR_AXIS":"6925.401","COUNTRY_CODE":"US","MEAN_MOTION":"15.06382733","TLE_LINE1":"1 44941U 20001AD  22020.07876808  .00002490  00000-0  18607-3 0  9995","TLE_LINE2":"2 44941  53.0543 263.5268 0002076  69.8425 290.2787 15.06382733112596","MEAN_ELEMENT_THEORY":"SGP4","CLASSIFICATION_TYPE":"U","PERIAPSIS":"545.829","INCLINATION":"53.0543","SITE":"AFETR","GP_ID":"194258522","BSTAR":"0.00018607000000","MEAN_MOTION_DOT":"0.00002490","ECCENTRICITY":"0.00020760","NORAD_CAT_ID":"44941","EPOCH":"2022-01-20T01:53:25.562112","DECAY_DATE":null,"APOAPSIS":"548.704","REF_FRAME":"TEME","MEAN_ANOMALY":"290.2787","MEAN_MOTION_DDOT":"0.0000000000000","OBJECT_ID":"2020-001AD","ELEMENT_SET_NO":"999","OBJECT_NAME":"STARLINK-1094","EPHEMERIS_TYPE":"0"},{"RA_OF_ASC_NODE":"262.1046","OBJECT_TYPE":"PAYLOAD","REV_AT_EPOCH":"11264","FILE":"3278533","LAUNCH_DATE":"2020-01-07","ARG_OF_PERICENTER":"65.3961","RCS_SIZE":"LARGE","CENTER_NAME":"EARTH","PERIOD":"95.593","TIME_SYSTEM":"UTC","SEMIMAJOR_AXIS":"6925.373","COUNTRY_CODE":"US","MEAN_MOTION":"15.06391937","TLE_LINE1":"1 44942U 20001AE  22020.39574621  .00002384  00000-0  17896-3 0  9990","TLE_LINE2":"2 44942  53.0533 262.1046 0001923  65.3961 294.7228 15.06391937112642","MEAN_ELEMENT_THEORY":"SGP4","CLASSIFICATION_TYPE":"U","SITE":"AFETR","INCLINATION":"53.0533","PERIAPSIS":"545.907","BSTAR":"0.00017896000000","GP_ID":"194258773","MEAN_MOTION_DOT":"0.00002384","NORAD_CAT_ID":"44942","ECCENTRICITY":"0.00019230","DECAY_DATE":null,"EPOCH":"2022-01-20T09:29:52.472544","APOAPSIS":"548.570","MEAN_ANOMALY":"294.7228","REF_FRAME":"TEME","OBJECT_ID":"2020-001AE","MEAN_MOTION_DDOT":"0.0000000000000","ELEMENT_SET_NO":"999","OBJECT_NAME":"STARLINK-1096","EPHEMERIS_TYPE":"0"},{"EPHEMERIS_TYPE":"0","OBJECT_NAME":"STARLINK-1100","MEAN_ANOMALY":"293.3255","REF_FRAME":"TEME","ELEMENT_SET_NO":"999","OBJECT_ID":"2020-001AF","MEAN_MOTION_DDOT":"0.0000000000000","DECAY_DATE":null,"EPOCH":"2022-01-20T08:58:01.970688","NORAD_CAT_ID":"44943","ECCENTRICITY":"0.00018270","APOAPSIS":"548.509","GP_ID":"194258022","BSTAR":"0.00021500000000","MEAN_MOTION_DOT":"0.00002921","TLE_LINE1":"1 44943U 20001AF  22020.37363392  .00002921  00000-0  21500-3 0  9994","MEAN_MOTION":"15.06390219","INCLINATION":"53.0541","SITE":"AFETR","PERIAPSIS":"545.978","TLE_LINE2":"2 44943  53.0541 262.2074 0001827  66.7926 293.3255 15.06390219112639","MEAN_ELEMENT_THEORY":"SGP4","CLASSIFICATION_TYPE":"U","PERIOD":"95.593","TIME_SYSTEM":"UTC","COUNTRY_CODE":"US","SEMIMAJOR_AXIS":"6925.379","REV_AT_EPOCH":"11263","FILE":"3278533","OBJECT_TYPE":"PAYLOAD","RA_OF_ASC_NODE":"262.2074","CENTER_NAME":"EARTH","LAUNCH_DATE":"2020-01-07","RCS_SIZE":"LARGE","ARG_OF_PERICENTER":"66.7926"},{"MEAN_MOTION":"15.06386638","TLE_LINE1":"1 44944U 20001AG  22020.35521404  .00003537  00000-0  25634-3 0  9999","MEAN_ELEMENT_THEORY":"SGP4","TLE_LINE2":"2 44944  53.0542 262.2854 0002035  61.8249 298.2945 15.06386638112633","CLASSIFICATION_TYPE":"U","SITE":"AFETR","INCLINATION":"53.0542","PERIAPSIS":"545.845","BSTAR":"0.00025634000000","GP_ID":"194258268","MEAN_MOTION_DOT":"0.00003537","RA_OF_ASC_NODE":"262.2854","OBJECT_TYPE":"PAYLOAD","REV_AT_EPOCH":"11263","FILE":"3278533","LAUNCH_DATE":"2020-01-07","RCS_SIZE":"LARGE","ARG_OF_PERICENTER":"61.8249","CENTER_NAME":"EARTH","PERIOD":"95.593","TIME_SYSTEM":"UTC","SEMIMAJOR_AXIS":"6925.390","COUNTRY_CODE":"US","MEAN_ANOMALY":"298.2945","REF_FRAME":"TEME","OBJECT_ID":"2020-001AG","MEAN_MOTION_DDOT":"0.0000000000000","ELEMENT_SET_NO":"999","OBJECT_NAME":"STARLINK-1108","EPHEMERIS_TYPE":"0","NORAD_CAT_ID":"44944","ECCENTRICITY":"0.00020350","DECAY_DATE":null,"EPOCH":"2022-01-20T08:31:30.493056","APOAPSIS":"548.664"},{"EPOCH":"2022-01-20T09:13:58.153440","DECAY_DATE":null,"ECCENTRICITY":"0.00018340","NORAD_CAT_ID":"44945","APOAPSIS":"548.484","REF_FRAME":"TEME","MEAN_ANOMALY":"299.0379","ELEMENT_SET_NO":"999","MEAN_MOTION_DDOT":"0.0000000000000","OBJECT_ID":"2020-001AH","EPHEMERIS_TYPE":"0","OBJECT_NAME":"STARLINK-1109","FILE":"3278533","REV_AT_EPOCH":"11263","RA_OF_ASC_NODE":"262.1492","OBJECT_TYPE":"PAYLOAD","CENTER_NAME":"EARTH","RCS_SIZE":"LARGE","ARG_OF_PERICENTER":"61.0794","LAUNCH_DATE":"2020-01-07","TIME_SYSTEM":"UTC","PERIOD":"95.592","COUNTRY_CODE":"US","SEMIMAJOR_AXIS":"6925.349","TLE_LINE1":"1 44945U 20001AH  22020.38470085  .00007040  00000-0  49102-3 0  9990","MEAN_MOTION":"15.06399854","PERIAPSIS":"545.944","SITE":"AFETR","INCLINATION":"53.0527","TLE_LINE2":"2 44945  53.0527 262.1492 0001834  61.0794 299.0379 15.06399854112631","CLASSIFICATION_TYPE":"U","MEAN_ELEMENT_THEORY":"SGP4","BSTAR":"0.00049102000000","GP_ID":"194259022","MEAN_MOTION_DOT":"0.00007040"},{"OBJECT_TYPE":"PAYLOAD","RA_OF_ASC_NODE":"256.3946","FILE":"3278533","REV_AT_EPOCH":"11269","ARG_OF_PERICENTER":"91.4000","RCS_SIZE":"LARGE","LAUNCH_DATE":"2020-01-07","CENTER_NAME":"EARTH","TIME_SYSTEM":"UTC","PERIOD":"95.394","SEMIMAJOR_AXIS":"6915.765","COUNTRY_CODE":"US","MEAN_MOTION":"15.09532285","TLE_LINE1":"1 44946U 20001AJ  22020.38223079  .00007865  00000-0  50218-3 0  9995","CLASSIFICATION_TYPE":"U","TLE_LINE2":"2 44946  53.0026 256.3946 0003042  91.4000 268.7338 15.09532285112699","MEAN_ELEMENT_THEORY":"SGP4","PERIAPSIS":"535.526","SITE":"AFETR","INCLINATION":"53.0026","BSTAR":"0.00050218000000","GP_ID":"194259274","MEAN_MOTION_DOT":"0.00007865","ECCENTRICITY":"0.00030420","NORAD_CAT_ID":"44946","EPOCH":"2022-01-20T09:10:24.740256","DECAY_DATE":null,"APOAPSIS":"539.734","REF_FRAME":"TEME","MEAN_ANOMALY":"268.7338","MEAN_MOTION_DDOT":"0.0000000000000","OBJECT_ID":"2020-001AJ","ELEMENT_SET_NO":"999","OBJECT_NAME":"STARLINK-1110","EPHEMERIS_TYPE":"0"},{"SEMIMAJOR_AXIS":"6925.397","COUNTRY_CODE":"US","TIME_SYSTEM":"UTC","PERIOD":"95.593","ARG_OF_PERICENTER":"65.9940","RCS_SIZE":"LARGE","LAUNCH_DATE":"2020-01-07","CENTER_NAME":"EARTH","OBJECT_TYPE":"PAYLOAD","RA_OF_ASC_NODE":"263.5356","FILE":"3278533","REV_AT_EPOCH":"11259","MEAN_MOTION_DOT":"0.00003418","GP_ID":"194257522","BSTAR":"0.00024835000000","TLE_LINE2":"2 44947  53.0537 263.5356 0001681  65.9940 294.1225 15.06384178112598","MEAN_ELEMENT_THEORY":"SGP4","CLASSIFICATION_TYPE":"U","PERIAPSIS":"546.098","INCLINATION":"53.0537","SITE":"AFETR","MEAN_MOTION":"15.06384178","TLE_LINE1":"1 44947U 20001AK  22020.07508230  .00003418  00000-0  24835-3 0  9993","APOAPSIS":"548.426","ECCENTRICITY":"0.00016810","NORAD_CAT_ID":"44947","EPOCH":"2022-01-20T01:48:07.110720","DECAY_DATE":null,"OBJECT_NAME":"STARLINK-1116","EPHEMERIS_TYPE":"0","MEAN_MOTION_DDOT":"0.0000000000000","OBJECT_ID":"2020-001AK","ELEMENT_SET_NO":"999","REF_FRAME":"TEME","MEAN_ANOMALY":"294.1225"},{"MEAN_ELEMENT_THEORY":"SGP4","TLE_LINE2":"2 44949  53.0537 260.4592 0001993  67.8355 292.2846 15.06385127112699","CLASSIFICATION_TYPE":"U","SITE":"AFETR","INCLINATION":"53.0537","PERIAPSIS":"545.879","MEAN_MOTION":"15.06385127","TLE_LINE1":"1 44949U 20001AM  22020.76434526  .00000808  00000-0  73142-4 0  9993","MEAN_MOTION_DOT":"0.00000808","BSTAR":"0.00007314200000","GP_ID":"194268764","LAUNCH_DATE":"2020-01-07","RCS_SIZE":"LARGE","ARG_OF_PERICENTER":"67.8355","CENTER_NAME":"EARTH","RA_OF_ASC_NODE":"260.4592","OBJECT_TYPE":"PAYLOAD","REV_AT_EPOCH":"11269","FILE":"3278702","SEMIMAJOR_AXIS":"6925.394","COUNTRY_CODE":"US","PERIOD":"95.593","TIME_SYSTEM":"UTC","OBJECT_ID":"2020-001AM","MEAN_MOTION_DDOT":"0.0000000000000","ELEMENT_SET_NO":"999","MEAN_ANOMALY":"292.2846","REF_FRAME":"TEME","OBJECT_NAME":"STARLINK-1122","EPHEMERIS_TYPE":"0","APOAPSIS":"548.639","NORAD_CAT_ID":"44949","ECCENTRICITY":"0.00019930","DECAY_DATE":null,"EPOCH":"2022-01-20T18:20:39.430464"}];
